COMMENT,ORIGINATOR,NORAD_CAT_ID,OBJECT_NAME,OBJECT_TYPE,CLASSIFICATION_TYPE,INTLDES,EPOCH,EPOCH_MICROSECONDS,MEAN_MOTION,ECCENTRICITY,INCLINATION,RA_OF_ASC_NODE,ARG_OF_PERICENTER,MEAN_ANOMALY,EPHEMERIS_TYPE,ELEMENT_SET_NO,REV_AT_EPOCH,BSTAR,MEAN_MOTION_DOT,MEAN_MOTION_DDOT,FILE,TLE_LINE0,TLE_LINE1,TLE_LINE2,OBJECT_ID,OBJECT_NUMBER,SEMIMAJOR_AXIS,PERIOD,APOGEE,PERIGEE,DECAYED
"GENERATED VIA SPACETRACK.ORG API","18 SPCS","51110","STARLINK-3344","PAYLOAD","U","22005G","2023-02-21 12:45:57","123360","15.08856921","0.0001032","53.2167","241.7988","83.4399","276.6711","0","999","6209","0.00025888","0.00003837","0","3819106","0 STARLINK-3344","1 51110U 22005G   23052.53191115  .00003837  00000-0  25888-3 0  9990","2 51110  53.2167 241.7988 0001032  83.4399 276.6711 15.08856921 62097","2022-005G","51110","6917.829","95.436","540.408","538.980","0"
"GENERATED VIA SPACETRACK.ORG API","18 SPCS","51110","STARLINK-3344","PAYLOAD","U","22005G","2023-02-21 19:07:30","409536","15.08835866","0.0001287","53.2171","240.6094","84.8033","275.3106","0","999","6213","-0.00010425","-0.00001946","0","3820390","0 STARLINK-3344","1 51110U 22005G   23052.79687974 -.00001946  00000-0 -10425-3 0  9993","2 51110  53.2171 240.6094 0001287  84.8033 275.3106 15.08835866 62134","2022-005G","51110","6917.893","95.438","540.648","538.868","0"
"GENERATED VIA SPACETRACK.ORG API","18 SPCS","51110","STARLINK-3344","PAYLOAD","U","22005G","2023-02-21 19:07:30","409536","15.08835866","0.0001287","53.2171","240.6094","84.8033","275.3106","0","999","6102","-0.00010425","-0.00001946","0","3821329","0 STARLINK-3344","1 51110U 22005G   23052.79687974 -.00001946  00000-0 -10425-3 0  9993","2 51110  53.2171 240.6094 0001287  84.8033 275.3106 15.08835866 61021","2022-005G","51110","6917.893","95.438","540.648","538.868","0"
"GENERATED VIA SPACETRACK.ORG API","18 SPCS","51110","STARLINK-3344","PAYLOAD","U","22005G","2023-02-22 12:36:45","282240","15.08829823","0.0001303","53.2172","237.338","87.4216","272.6925","0","999","6113","-0.00014073","-0.00002526","0","3824148","0 STARLINK-3344","1 51110U 22005G   23053.52552410 -.00002526  00000-0 -14073-3 0  9999","2 51110  53.2172 237.3380 0001303  87.4216 272.6925 15.08829823 61131","2022-005G","51110","6917.911","95.438","540.678","538.875","0"
"GENERATED VIA SPACETRACK.ORG API","18 SPCS","51110","STARLINK-3344","PAYLOAD","U","22005G","2023-02-22 22:09:03","956544","15.08836046","0.0001502","53.2166","235.5542","91.0431","269.0734","0","999","6119","-0.00014145","-0.00002538","0","3825529","0 STARLINK-3344","1 51110U 22005G   23053.92296246 -.00002538  00000-0 -14145-3 0  9998","2 51110  53.2166 235.5542 0001502  91.0431 269.0734 15.08836046 61194","2022-005G","51110","6917.892","95.438","540.797","538.718","0"
"GENERATED VIA SPACETRACK.ORG API","18 SPCS","51110","STARLINK-3344","PAYLOAD","U","22005G","2023-02-23 04:30:36","186048","15.08842553","0.0001396","53.2169","234.3647","84.1774","275.9377","0","999","6234","-0.00030183","-0.00005089","0","3826512","0 STARLINK-3344","1 51110U 22005G   23054.18791882 -.00005089  00000-0 -30183-3 0  9997","2 51110  53.2169 234.3647 0001396  84.1774 275.9377 15.08842553 62341","2022-005G","51110","6917.873","95.437","540.703","538.772","0"
"GENERATED VIA SPACETRACK.ORG API","18 SPCS","51110","STARLINK-3344","PAYLOAD","U","22005G","2023-02-23 12:27:32","575392","15.08832243","0.000135","53.2167","232.8776","88.0069","272.1078","0","999","6239","0.00020592","0.0000299","0","3828248","0 STARLINK-3344","1 51110U 22005G   23054.51912703  .00002990  00000-0  20592-3 0  9990","2 51110  53.2167 232.8776 0001350  88.0069 272.1078 15.08832243 62392","2022-005G","51110","6917.904","95.438","540.703","538.835","0"
"GENERATED VIA SPACETRACK.ORG API","18 SPCS","51110","STARLINK-3344","PAYLOAD","U","22005G","2023-02-23 12:27:32","575392","15.08832243","0.000135","53.2167","232.8776","88.0069","272.1078","0","999","6128","0.00020592","0.0000299","0","3828819","0 STARLINK-3344","1 51110U 22005G   23054.51912703  .00002990  00000-0  20592-3 0  9990","2 51110  53.2167 232.8776 0001350  88.0069 272.1078 15.08832243 61289","2022-005G","51110","6917.904","95.438","540.703","538.835","0"
"GENERATED VIA SPACETRACK.ORG API","18 SPCS","51110","STARLINK-3344","PAYLOAD","U","22005G","2023-02-23 20:24:28","99008","15.08840384","0.0001385","53.2168","231.391","87.986","272.1291","0","999","6133","0.00029965","0.00004484","0","3830532","0 STARLINK-3344","1 51110U 22005G   23054.85032522  .00004484  00000-0  29965-3 0  9992","2 51110  53.2168 231.3910 0001385  87.9860 272.1291 15.08840384 61337","2022-005G","51110","6917.879","95.438","540.702","538.786","0"
"GENERATED VIA SPACETRACK.ORG API","18 SPCS","51110","STARLINK-3344","PAYLOAD","U","22005G","2023-02-24 12:18:20","95776","15.08830402","0.0001348","53.2174","228.4172","87.4328","272.6819","0","999","6143","0.000028599","0.00000167","0","3832867","0 STARLINK-3344","1 51110U 22005G   23055.51273259  .00000167  00000-0  28599-4 0  9997","2 51110  53.2174 228.4172 0001348  87.4328 272.6819 15.08830402 61436","2022-005G","51110","6917.910","95.438","540.707","538.842","0"
"GENERATED VIA SPACETRACK.ORG API","18 SPCS","51110","STARLINK-3344","PAYLOAD","U","22005G","2023-02-24 20:15:15","762816","15.08834526","0.0001332","53.2176","226.9311","89.153","270.9615","0","999","6259","0.00011403","0.00001527","0","3834383","0 STARLINK-3344","1 51110U 22005G   23055.84393244  .00001527  00000-0  11403-3 0  9996","2 51110  53.2176 226.9311 0001332  89.1530 270.9615 15.08834526 62597","2022-005G","51110","6917.897","95.438","540.684","538.841","0"
"GENERATED VIA SPACETRACK.ORG API","18 SPCS","51110","STARLINK-3344","PAYLOAD","U","22005G","2023-02-24 20:15:15","762816","15.08834526","0.0001332","53.2176","226.9311","89.153","270.9615","0","999","6148","0.00011403","0.00001527","0","3835059","0 STARLINK-3344","1 51110U 22005G   23055.84393244  .00001527  00000-0  11403-3 0  9996","2 51110  53.2176 226.9311 0001332  89.1530 270.9615 15.08834526 61484","2022-005G","51110","6917.897","95.438","540.684","538.841","0"
"GENERATED VIA SPACETRACK.ORG API","18 SPCS","51110","STARLINK-3344","PAYLOAD","U","22005G","2023-02-25 20:06:02","865024","15.08841081","0.0001256","53.2174","222.4707","88.3217","271.7919","0","999","6163","0.000053098","0.00000557","0","3839003","0 STARLINK-3344","1 51110U 22005G   23056.83753316  .00000557  00000-0  53098-4 0  9995","2 51110  53.2174 222.4707 0001256  88.3217 271.7919 15.08841081 61637","2022-005G","51110","6917.877","95.437","540.611","538.873","0"
"GENERATED VIA SPACETRACK.ORG API","18 SPCS","51110","STARLINK-3344","PAYLOAD","U","22005G","2023-02-25 23:16:48","802656","15.08845503","0.0001251","53.2175","221.876","92.2116","267.9019","0","999","6276","0.000095487","0.00001232","0","3839519","0 STARLINK-3344","1 51110U 22005G   23056.97000929  .00001232  00000-0  95487-4 0  9994","2 51110  53.2175 221.8760 0001251  92.2116 267.9019 15.08845503 62763","2022-005G","51110","6917.864","95.437","540.594","538.863","0"
"GENERATED VIA SPACETRACK.ORG API","18 SPCS","51110","STARLINK-3344","PAYLOAD","U","22005G","2023-02-26 13:35:17","167488","15.08841869","0.0001232","53.2177","219.1993","92.3128","267.8005","0","999","6174","0.00015724","0.00002216","0","3841853","0 STARLINK-3344","1 51110U 22005G   23057.56617092  .00002216  00000-0  15724-3 0  9993","2 51110  53.2177 219.1993 0001232  92.3128 267.8005 15.08841869 61748","2022-005G","51110","6917.875","95.437","540.592","538.887","0"
"GENERATED VIA SPACETRACK.ORG API","18 SPCS","51110","STARLINK-3344","PAYLOAD","U","22005G","2023-02-26 19:56:48","912288","15.08854458","0.0001297","53.2189","218.0097","91.0302","269.0839","0","999","6178","0.00022088","0.00003231","0","3843368","0 STARLINK-3344","1 51110U 22005G   23057.83112167  .00003231  00000-0  22088-3 0  9995","2 51110  53.2189 218.0097 0001297  91.0302 269.0839 15.08854458 61786","2022-005G","51110","6917.836","95.437","540.598","538.804","0"
"GENERATED VIA SPACETRACK.ORG API","18 SPCS","51110","STARLINK-3344","PAYLOAD","U","22005G","2023-02-27 10:15:18","211104","15.08840441","0.0001503","53.2179","215.3341","76.591","283.5249","0","999","6298","0.000044842","0.00000426","0","3845379","0 STARLINK-3344","1 51110U 22005G   23058.42729411  .00000426  00000-0  44842-4 0  9993","2 51110  53.2179 215.3341 0001503  76.5910 283.5249 15.08840441 62986","2022-005G","51110","6917.879","95.438","540.784","538.704","0"
"GENERATED VIA SPACETRACK.ORG API","18 SPCS","51110","STARLINK-3344","PAYLOAD","U","22005G","2023-02-27 10:15:18","211104","15.08840441","0.0001503","53.2179","215.3341","76.591","283.5249","0","999","6187","0.000044842","0.00000426","0","3846396","0 STARLINK-3344","1 51110U 22005G   23058.42729411  .00000426  00000-0  44842-4 0  9993","2 51110  53.2179 215.3341 0001503  76.5910 283.5249 15.08840441 61873","2022-005G","51110","6917.879","95.438","540.784","538.704","0"
"GENERATED VIA SPACETRACK.ORG API","18 SPCS","51110","STARLINK-3344","PAYLOAD","U","22005G","2023-02-27 18:12:12","993408","15.08860132","0.0001412","53.218","213.8468","80.2627","279.8525","0","999","6303","0.00033996","0.0000513","0","3846610","0 STARLINK-3344","1 51110U 22005G   23058.75848372  .00005130  00000-0  33996-3 0  9991","2 51110  53.2180 213.8468 0001412  80.2627 279.8525 15.08860132 63038","2022-005G","51110","6917.819","95.436","540.661","538.707","0"
"GENERATED VIA SPACETRACK.ORG API","18 SPCS","51110","STARLINK-3344","PAYLOAD","U","22005G","2023-02-27 19:47:36","241728","15.0885788","0.000134","53.2177","213.5488","75.5983","284.5158","0","999","6193","0.00038712","0.00005881","0","3846812","0 STARLINK-3344","1 51110U 22005G   23058.82472502  .00005881  00000-0  38712-3 0  9991","2 51110  53.2177 213.5488 0001340  75.5983 284.5158 15.08857880 61933","2022-005G","51110","6917.826","95.436","540.618","538.764","0"
